IRIDIUM 144             
1 43249U 18030A   24225.47601049  .00000100  00000+0  28719-4 0  9991
2 43249  86.3973 211.9432 0002081  83.9400 276.2033 14.34218103333578
IRIDIUM 149             
1 43250U 18030B   24225.41258620 -.00000051  00000+0 -25435-4 0  9999
2 43250  86.3977 211.9444 0001944  87.6103 272.5315 14.34216990333580
IRIDIUM 157             
1 43251U 18030C   24225.71068757  .00000058  00000+0  13479-4 0  9993
2 43251  86.3976 211.8579 0002347  95.4471 264.6993 14.34217845333608
IRIDIUM 140             
1 43252U 18030D   24225.79948305  .00000086  00000+0  23783-4 0  9998
2 43252  86.3975 211.8352 0002255  78.4162 281.7287 14.34217816333674
IRIDIUM 145             
1 43253U 18030E   24225.71702496  .00000012  00000+0 -27364-5 0  9990
2 43253  86.3976 211.8432 0001781  83.7331 276.4068 14.34220110333595
IRIDIUM 146             
1 43254U 18030F   24225.41892674  .00000491  00000+0  16811-3 0  9999
2 43254  86.3974 211.9823 0002124  85.4445 274.6993 14.34220476333565
IRIDIUM 148             
1 43255U 18030G   24225.38721214  .00000134  00000+0  40743-4 0  9993
2 43255  86.3976 212.0282 0002212  92.4800 267.6649 14.34217786333593
IRIDIUM 142             
1 43256U 18030H   24225.42526962  .00000122  00000+0  36410-4 0  9995
2 43256  86.3972 211.9259 0001922  84.4447 275.6968 14.34218253333567
